0 SL-12 R/B(AUX MOTOR)
1 32280U 07052F   13283.76211466  .00000002  00000-0  31658-4 0  1361
2 32280 065.3923 128.1037 5525592 089.7704 330.1791 04.23383478 91944
0 SL-12 R/B(AUX MOTOR)
1 32280U 07052F   13283.77576987  .00000070  00000-0  15832-3 0  1364
2 32280 065.3922 128.0963 5525994 089.7638 350.9922 04.23383519 91944
0 SL-12 R/B(AUX MOTOR)
1 32280U 07052F   13287.79607556  .00000069  00000-0  31276-4 0  1377
2 32280 065.3928 126.7521 5526560 089.5352 358.6886 04.23383638 92112
0 SL-12 R/B(AUX MOTOR)
1 32280U 07052F   13290.61182522 -.00000002  00000-0  00000+0 0  1388
2 32280 065.3918 125.8138 5526661 089.3825 330.4137 04.23383435 92235
0 SL-12 R/B(AUX MOTOR)
1 32280U 07052F   13291.81180267  .00000066  00000-0  80879-4 0  1381
2 32280 065.3932 125.4094 5527157 089.3077 359.4090 04.23383616 92283
0 SL-12 R/B(AUX MOTOR)
1 32280U 07052F   13295.82799038  .00000056  00000-0  96747-4 0  1399
2 32280 065.3937 124.0656 5527779 089.0805 000.8311 04.23383596 92452
